start=new Date('2023-04-19T00:00:00.000Z').valueOf();
sats=[{"EPHEMERIS_TYPE":"0","MEAN_MOTION_DOT":"0.00004218","LAUNCH_DATE":"2022-09-24","TLE_LINE1":"1 53933U 22119AZ  23108.13722655  .00004218  00000-0  28287-3 0  9998","TLE_LINE2":"2 53933  53.2189   7.0274 0001201 113.9150 246.1968 15.08845694 32468","TIME_SYSTEM":"UTC","FILE":"3889684","OBJECT_TYPE":"PAYLOAD","BSTAR":"0.00028287000000","SEMIMAJOR_AXIS":"6917.863","SITE":"AFETR","OBJECT_NAME":"STARLINK-4782","ECCENTRICITY":"0.00012010","PERIAPSIS":"538.897","MEAN_ANOMALY":"246.1968","OBJECT_ID":"2022-119AZ","MEAN_ELEMENT_THEORY":"SGP4","REF_FRAME":"TEME","APOAPSIS":"540.559","NORAD_CAT_ID":"53933","EPOCH":"2023-04-18T03:17:36.373920","ELEMENT_SET_NO":"999","ARG_OF_PERICENTER":"113.9150","CENTER_NAME":"EARTH","REV_AT_EPOCH":"3246","COUNTRY_CODE":"US","GP_ID":"230300684","DECAY_DATE":null,"INCLINATION":"53.2189","RCS_SIZE":"LARGE","MEAN_MOTION_DDOT":"0.0000000000000","CLASSIFICATION_TYPE":"U","PERIOD":"95.437","RA_OF_ASC_NODE":"7.0274","MEAN_MOTION":"15.08845694"},{"RCS_SIZE":"LARGE","MEAN_MOTION_DDOT":"0.0000000000000","INCLINATION":"53.2177","CLASSIFICATION_TYPE":"U","PERIOD":"95.438","RA_OF_ASC_NODE":"359.7644","MEAN_MOTION":"15.08835222","APOAPSIS":"540.603","NORAD_CAT_ID":"53934","EPOCH":"2023-04-18T16:25:14.723616","ELEMENT_SET_NO":"999","CENTER_NAME":"EARTH","ARG_OF_PERICENTER":"81.5508","COUNTRY_CODE":"US","REV_AT_EPOCH":"3219","DECAY_DATE":null,"GP_ID":"230274856","OBJECT_NAME":"STARLINK-4775","SITE":"AFETR","ECCENTRICITY":"0.00012180","SEMIMAJOR_AXIS":"6917.895","PERIAPSIS":"538.917","MEAN_ANOMALY":"278.5622","REF_FRAME":"TEME","MEAN_ELEMENT_THEORY":"SGP4","OBJECT_ID":"2022-119BA","EPHEMERIS_TYPE":"0","LAUNCH_DATE":"2022-09-24","MEAN_MOTION_DOT":"0.00001383","TLE_LINE1":"1 53934U 22119BA  23108.68419819  .00001383  00000-0  10499-3 0  9990","TIME_SYSTEM":"UTC","TLE_LINE2":"2 53934  53.2177 359.7644 0001218  81.5508 278.5622 15.08835222 32191","OBJECT_TYPE":"PAYLOAD","FILE":"3889673","BSTAR":"0.00010499000000"},{"EPHEMERIS_TYPE":"0","MEAN_MOTION_DOT":"0.00001860","LAUNCH_DATE":"2022-09-24","TLE_LINE1":"1 53935U 22119BB  23108.07053234  .00001860  00000-0  13489-3 0  9991","TIME_SYSTEM":"UTC","TLE_LINE2":"2 53935  53.2196 352.3425 0001133  87.4478 272.6643 15.08841153 32666","FILE":"3889684","OBJECT_TYPE":"PAYLOAD","BSTAR":"0.00013489000000","SEMIMAJOR_AXIS":"6917.877","SITE":"AFETR","OBJECT_NAME":"STARLINK-5000","ECCENTRICITY":"0.00011330","PERIAPSIS":"538.958","MEAN_ANOMALY":"272.6643","MEAN_ELEMENT_THEORY":"SGP4","OBJECT_ID":"2022-119BB","REF_FRAME":"TEME","APOAPSIS":"540.526","NORAD_CAT_ID":"53935","EPOCH":"2023-04-18T01:41:33.994176","ELEMENT_SET_NO":"999","ARG_OF_PERICENTER":"87.4478","CENTER_NAME":"EARTH","REV_AT_EPOCH":"3266","COUNTRY_CODE":"US","DECAY_DATE":null,"GP_ID":"230301187","RCS_SIZE":"LARGE","MEAN_MOTION_DDOT":"0.0000000000000","INCLINATION":"53.2196","CLASSIFICATION_TYPE":"U","PERIOD":"95.437","RA_OF_ASC_NODE":"352.3425","MEAN_MOTION":"15.08841153"},{"SEMIMAJOR_AXIS":"6914.799","ECCENTRICITY":"0.00016490","SITE":"AFETR","OBJECT_NAME":"STARLINK-4791","PERIAPSIS":"535.524","MEAN_ANOMALY":"289.3212","OBJECT_ID":"2022-119BC","MEAN_ELEMENT_THEORY":"SGP4","REF_FRAME":"TEME","EPHEMERIS_TYPE":"0","MEAN_MOTION_DOT":"-0.00117471","LAUNCH_DATE":"2022-09-24","TLE_LINE1":"1 53936U 22119BC  23108.85350005 -.00117471  00000-0 -72799-2 0  9990","TIME_SYSTEM":"UTC","TLE_LINE2":"2 53936  53.2166 358.6877 0001649  70.7959 289.3212 15.09848653 32227","FILE":"3889987","OBJECT_TYPE":"PAYLOAD","BSTAR":"-0.00727990000000","RCS_SIZE":"LARGE","INCLINATION":"53.2166","MEAN_MOTION_DDOT":"0.0000000000000","CLASSIFICATION_TYPE":"U","PERIOD":"95.374","RA_OF_ASC_NODE":"358.6877","MEAN_MOTION":"15.09848653","APOAPSIS":"537.804","NORAD_CAT_ID":"53936","EPOCH":"2023-04-18T20:29:02.404320","ELEMENT_SET_NO":"999","CENTER_NAME":"EARTH","ARG_OF_PERICENTER":"70.7959","REV_AT_EPOCH":"3222","COUNTRY_CODE":"US","GP_ID":"230334001","DECAY_DATE":null},{"MEAN_MOTION_DDOT":"0.0000000000000","RCS_SIZE":"LARGE","INCLINATION":"53.2173","RA_OF_ASC_NODE":"354.7079","MEAN_MOTION":"15.10214452","CLASSIFICATION_TYPE":"U","PERIOD":"95.351","EPOCH":"2023-04-18T16:07:48.845568","ELEMENT_SET_NO":"999","APOAPSIS":"536.593","NORAD_CAT_ID":"53937","DECAY_DATE":null,"GP_ID":"230302343","ARG_OF_PERICENTER":"134.5819","CENTER_NAME":"EARTH","REV_AT_EPOCH":"3226","COUNTRY_CODE":"US","SEMIMAJOR_AXIS":"6913.682","SITE":"AFETR","OBJECT_NAME":"STARLINK-4765","ECCENTRICITY":"0.00015130","PERIAPSIS":"534.501","MEAN_ANOMALY":"225.5297","OBJECT_ID":"2022-119BD","MEAN_ELEMENT_THEORY":"SGP4","REF_FRAME":"TEME","MEAN_MOTION_DOT":"-0.00067157","LAUNCH_DATE":"2022-09-24","TLE_LINE1":"1 53937U 22119BD  23108.67209312 -.00067157  00000-0 -40837-2 0  9998","EPHEMERIS_TYPE":"0","BSTAR":"-0.00408370000000","TIME_SYSTEM":"UTC","TLE_LINE2":"2 53937  53.2173 354.7079 0001513 134.5819 225.5297 15.10214452 32266","FILE":"3889696","OBJECT_TYPE":"PAYLOAD"},{"MEAN_ELEMENT_THEORY":"SGP4","OBJECT_ID":"2022-125A","REF_FRAME":"TEME","MEAN_ANOMALY":"261.7269","PERIAPSIS":"539.021","SEMIMAJOR_AXIS":"6917.882","SITE":"AFWTR","OBJECT_NAME":"STARLINK-4633","ECCENTRICITY":"0.00010490","BSTAR":"0.00012938000000","FILE":"3889987","OBJECT_TYPE":"PAYLOAD","TLE_LINE2":"2 53964  53.2152 284.7318 0001049  98.3842 261.7269 15.08839469 29904","TIME_SYSTEM":"UTC","TLE_LINE1":"1 53964U 22125A   23108.71502466  .00001772  00000-0  12938-3 0  9997","MEAN_MOTION_DOT":"0.00001772","LAUNCH_DATE":"2022-10-05","EPHEMERIS_TYPE":"0","MEAN_MOTION":"15.08839469","RA_OF_ASC_NODE":"284.7318","PERIOD":"95.438","CLASSIFICATION_TYPE":"U","RCS_SIZE":"LARGE","INCLINATION":"53.2152","MEAN_MOTION_DDOT":"0.0000000000000","GP_ID":"230333755","DECAY_DATE":null,"REV_AT_EPOCH":"2990","COUNTRY_CODE":"US","CENTER_NAME":"EARTH","ARG_OF_PERICENTER":"98.3842","ELEMENT_SET_NO":"999","EPOCH":"2023-04-18T17:09:38.130624","NORAD_CAT_ID":"53964","APOAPSIS":"540.473"},{"INCLINATION":"53.2149","RCS_SIZE":"LARGE","MEAN_MOTION_DDOT":"0.0000000000000","PERIOD":"95.437","CLASSIFICATION_TYPE":"U","MEAN_MOTION":"15.08845717","RA_OF_ASC_NODE":"284.4161","NORAD_CAT_ID":"53965","APOAPSIS":"540.462","ELEMENT_SET_NO":"999","EPOCH":"2023-04-18T18:41:05.780832","COUNTRY_CODE":"US","REV_AT_EPOCH":"2991","CENTER_NAME":"EARTH","ARG_OF_PERICENTER":"94.8968","GP_ID":"230334003","DECAY_DATE":null,"PERIAPSIS":"538.994","SITE":"AFWTR","ECCENTRICITY":"0.00010610","OBJECT_NAME":"STARLINK-4578","SEMIMAJOR_AXIS":"6917.863","REF_FRAME":"TEME","OBJECT_ID":"2022-125B","MEAN_ELEMENT_THEORY":"SGP4","MEAN_ANOMALY":"265.2145","EPHEMERIS_TYPE":"0","TLE_LINE1":"1 53965U 22125B   23108.77853913  .00015260  00000-0  97466-3 0  9996","LAUNCH_DATE":"2022-10-05","MEAN_MOTION_DOT":"0.00015260","OBJECT_TYPE":"PAYLOAD","FILE":"3889987","TLE_LINE2":"2 53965  53.2149 284.4161 0001061  94.8968 265.2145 15.08845717 29914","TIME_SYSTEM":"UTC","BSTAR":"0.00097466000000"},{"REF_FRAME":"TEME","OBJECT_ID":"2022-125C","MEAN_ELEMENT_THEORY":"SGP4","MEAN_ANOMALY":"272.7986","PERIAPSIS":"538.953","ECCENTRICITY":"0.00011150","SITE":"AFWTR","OBJECT_NAME":"STARLINK-4635","SEMIMAJOR_AXIS":"6917.859","OBJECT_TYPE":"PAYLOAD","FILE":"3889987","TIME_SYSTEM":"UTC","TLE_LINE2":"2 53966  53.2142 284.3889 0001115  87.3134 272.7986 15.08846934 29914","BSTAR":"0.00031780000000","EPHEMERIS_TYPE":"0","TLE_LINE1":"1 53966U 22125C   23108.77389319  .00004774  00000-0  31780-3 0  9996","LAUNCH_DATE":"2022-10-05","MEAN_MOTION_DOT":"0.00004774","PERIOD":"95.437","CLASSIFICATION_TYPE":"U","MEAN_MOTION":"15.08846934","RA_OF_ASC_NODE":"284.3889","RCS_SIZE":"LARGE","INCLINATION":"53.2142","MEAN_MOTION_DDOT":"0.0000000000000","COUNTRY_CODE":"US","REV_AT_EPOCH":"2991","ARG_OF_PERICENTER":"87.3134","CENTER_NAME":"EARTH","DECAY_DATE":null,"GP_ID":"230333256","NORAD_CAT_ID":"53966","APOAPSIS":"540.496","ELEMENT_SET_NO":"999","EPOCH":"2023-04-18T18:34:24.371616"},{"GP_ID":"230333005","DECAY_DATE":null,"CENTER_NAME":"EARTH","ARG_OF_PERICENTER":"79.8027","COUNTRY_CODE":"US","REV_AT_EPOCH":"2991","EPOCH":"2023-04-18T18:29:06.118080","ELEMENT_SET_NO":"999","APOAPSIS":"540.473","NORAD_CAT_ID":"53967","RA_OF_ASC_NODE":"284.3680","MEAN_MOTION":"15.08848121","CLASSIFICATION_TYPE":"U","PERIOD":"95.437","INCLINATION":"53.2158","RCS_SIZE":"LARGE","MEAN_MOTION_DDOT":"0.0000000000000","BSTAR":"0.00053772000000","TLE_LINE2":"2 53967  53.2158 284.3680 0001088  79.8027 280.3088 15.08848121 29915","TIME_SYSTEM":"UTC","OBJECT_TYPE":"PAYLOAD","FILE":"3889987","LAUNCH_DATE":"2022-10-05","MEAN_MOTION_DOT":"0.00008282","TLE_LINE1":"1 53967U 22125D   23108.77020970  .00008282  00000-0  53772-3 0  9995","EPHEMERIS_TYPE":"0","MEAN_ANOMALY":"280.3088","REF_FRAME":"TEME","MEAN_ELEMENT_THEORY":"SGP4","OBJECT_ID":"2022-125D","SITE":"AFWTR","OBJECT_NAME":"STARLINK-4634","ECCENTRICITY":"0.00010880","SEMIMAJOR_AXIS":"6917.856","PERIAPSIS":"538.968"},{"BSTAR":"0.00195060000000","TIME_SYSTEM":"UTC","TLE_LINE2":"2 53968  53.2151 284.2975 0001199  79.9037 280.2090 15.08892472 29910","OBJECT_TYPE":"PAYLOAD","FILE":"3889987","LAUNCH_DATE":"2022-10-05","MEAN_MOTION_DOT":"0.00030937","TLE_LINE1":"1 53968U 22125E   23108.75916022  .00030937  00000-0  19506-2 0  9994","EPHEMERIS_TYPE":"0","MEAN_ANOMALY":"280.2090","REF_FRAME":"TEME","OBJECT_ID":"2022-125E","MEAN_ELEMENT_THEORY":"SGP4","ECCENTRICITY":"0.00011990","SITE":"AFWTR","OBJECT_NAME":"STARLINK-4629","SEMIMAJOR_AXIS":"6917.720","PERIAPSIS":"538.756","GP_ID":"230334255","DECAY_DATE":null,"ARG_OF_PERICENTER":"79.9037","CENTER_NAME":"EARTH","COUNTRY_CODE":"US","REV_AT_EPOCH":"2991","EPOCH":"2023-04-18T18:13:11.443008","ELEMENT_SET_NO":"999","APOAPSIS":"540.414","NORAD_CAT_ID":"53968","RA_OF_ASC_NODE":"284.2975","MEAN_MOTION":"15.08892472","CLASSIFICATION_TYPE":"U","PERIOD":"95.434","MEAN_MOTION_DDOT":"0.0000000000000","RCS_SIZE":"LARGE","INCLINATION":"53.2151"}];
